{
    "links": {
        "self": "http://www.neowsapp.com/rest/v1/neo/3771602?api_key=iIulBulltgU6a56xZRHN4H3l9WmuAYTsLGpBGhQ2"
    },
    "id": "3771602",
    "neo_reference_id": "3771602",
    "name": "(2017 ED23)",
    "designation": "2017 ED23",
    "nasa_jpl_url": "http://ssd.jpl.nasa.gov/sbdb.cgi?sstr=3771602",
    "absolute_magnitude_h": 24.567,
    "estimated_diameter": {
        "kilometers": {
            "estimated_diameter_min": 0.0324455378,
            "estimated_diameter_max": 0.072550428
        },
        "meters": {
            "estimated_diameter_min": 32.4455377565,
            "estimated_diameter_max": 72.5504279901
        },
        "miles": {
            "estimated_diameter_min": 0.0201607162,
            "estimated_diameter_max": 0.045080732
        },
        "feet": {
            "estimated_diameter_min": 106.448618093,
            "estimated_diameter_max": 238.0263461669
        }
    },
    "is_potentially_hazardous_asteroid": false,
    "close_approach_data": [
        {
            "close_approach_date": "2017-03-01",
            "close_approach_date_full": "2017-Mar-01 01:35",
            "epoch_date_close_approach": 1488332100000,
            "relative_velocity": {
                "kilometers_per_second": "25.3211519279",
                "kilometers_per_hour": "91156.1469402755",
                "miles_per_hour": "56640.8847474173"
            },
            "miss_distance": {
                "astronomical": "0.0165990876",
                "lunar": "6.4570450764",
                "kilometers": "2483188.148903412",
                "miles": "1542981.5667226056"
            },
            "orbiting_body": "Earth"
        }
    ],
    "orbital_data": {
        "orbit_id": "2",
        "orbit_determination_date": "2017-04-06 08:19:32",
        "first_observation_date": "2017-03-07",
        "last_observation_date": "2017-03-08",
        "data_arc_in_days": 1,
        "observations_used": 19,
        "orbit_uncertainty": "9",
        "minimum_orbit_intersection": ".00619521",
        "jupiter_tisserand_invariant": "3.603",
        "epoch_osculation": "2457820.5",
        "eccentricity": ".7717267825756042",
        "semi_major_axis": "1.825640840227649",
        "inclination": "1.914091589997323",
        "ascending_node_longitude": "130.9102673409362",
        "orbital_period": "900.9930492836285",
        "perihelion_distance": ".4167449084601428",
        "perihelion_argument": "280.1200809779456",
        "aphelion_distance": "3.234536771995156",
        "perihelion_time": "2457768.485321129612",
        "mean_anomaly": "20.78293989973395",
        "mean_motion": ".3995591312122028",
        "equinox": "J2000",
        "orbit_class": {
            "orbit_class_type": "APO",
            "orbit_class_description": "Near-Earth asteroid orbits which cross the Earth’s orbit similar to that of 1862 Apollo",
            "orbit_class_range": "a (semi-major axis) > 1.0 AU; q (perihelion) < 1.017 AU"
        }
    },
    "is_sentry_object": false
}